38P/Stephan-Oterma,e,18.3807,77.9226,359.4981,11.23587,0.0261694,0.85928057,35.8649,08/13.0/2022,2000,g  3.5,12.0
# From MPEC 2022-A21
39P/Oterma,e,1.5472,298.3542,98.6968,7.325059,0.0497150,0.21993757,344.7322,08/13.0/2022,2000,g  7.0,6.0
# From MPC100283
40P/Vaisala,e,11.4681,133.7636,47.3798,4.954328,0.0893772,0.63002413,253.5183,08/13.0/2022,2000,g  5.5,12.0
# From MPC105240
41P/Tuttle-Giacobini-Kresak,e,9.2207,140.9891,62.2125,3.088362,0.1815983,0.65996647,354.2957,08/13.0/2022,2000,g 10.0,16.0
# From MPC 94283
42P/Neujmin,e,3.9915,150.1748,147.2355,4.873485,0.0916104,0.58487902,245.4663,08/13.0/2022,2000,g 13.0,6.0
# From MPEC 2022-C56
43P/Wolf-Harrington,e,9.3325,244.0562,224.0943,4.319135,0.1098017,0.43525162,240.3764,08/13.0/2022,2000,g  8.0,6.0
# From MPEC 2022-PB4
44P/Reinmuth,e,5.8956,286.4466,58.0738,3.691659,0.1389542,0.42774760,15.5373,08/13.0/2022,2000,g  8.3,6.0
# From MPEC 2022-O01
45P/Honda-Mrkos-Pajdusakova,e,4.3227,87.7017,327.9095,3.055082,0.1845737,0.81761015,19.9428,08/13.0/2022,2000,g 13.5,8.0
# From MPEC 2021-O56
46P/Wirtanen,e,11.7477,82.1588,356.3269,3.091774,0.1812978,0.65857522,242.9486,08/13.0/2022,2000,g 14.0,6.0
# From MPEC 2022-HC2
47P/Ashbrook-Jackson,e,13.0413,356.9215,357.7125,4.122641,0.1177446,0.31868531,222.1181,08/13.0/2022,2000,g  1.0,11.2
# From MPEC 2021-F20
48P/Johnson,e,12.2023,110.1063,216.7176,3.501032,0.1504561,0.42729489,219.7533,08/13.0/2022,2000,g 12.4,4.0
# From MPEC 2021-F20
49P/Arend-Rigaux,e,19.0489,118.7936,332.9206,3.569596,0.1461421,0.59841464,217.9369,08/13.0/2022,2000,g 13.4,4.0
# From MPEC 2015-S97
50P/Arend,e,19.1006,355.1782,49.3293,4.087860,0.1192504,0.52947746,283.8085,08/13.0/2022,2000,g  9.5,6.0
# From NK 3014
51P-A/Harrington,e,5.4258,83.6734,269.2586,3.709201,0.1379696,0.54367426,352.8373,08/13.0/2022,2000,g 10.0,8.0
# From MPEC 2022-PB4
51P-D/Harrington,e,5.4265,83.6598,269.3011,3.708432,0.1380126,0.54363554,353.1311,08/13.0/2022,2000,g 16.0,8.0
# From MPEC 2022-L66
52P/Harrington-Abell,e,10.2313,336.8360,139.5742,3.864357,0.1297443,0.54018466,40.4580,08/13.0/2022,2000,g 13.5,6.0
# From MPC100283
53P/Van Biesbroeck,e,6.6093,148.8129,134.5089,5.430694,0.0778791,0.55097913,178.8283,08/13.0/2022,2000,g  7.7,4.8
# From MPC 89011
54P/de Vico-Swift-NEAT,e,6.0646,358.8169,1.8473,3.789537,0.1336057,0.42641312,259.4425,08/13.0/2022,2000,g  9.0,4.0
# From MPC 31070
55P/Tempel-Tuttle,e,162.4844,235.4153,172.4777,10.35714,0.0295695,0.90556165,265.3104,08/13.0/2022,2000,g  9.0,4.0
# From MPC101100
56P/Slaughter-Burnham,e,8.1608,345.9922,44.0067,5.066966,0.0864136,0.50828696,191.2518,08/13.0/2022,2000,g  8.5,6.0
# From MPEC 2022-PB4
57P/duToit-Neujmin-Delporte,e,2.8522,188.7716,115.1937,3.445386,0.1541158,0.50096058,46.1887,08/13.0/2022,2000,g 12.5,6.0
# From MPEC 2021-O56
58P/Jackson-Neujmin,e,13.1085,159.0746,200.5204,4.087324,0.1192739,0.66280939,96.2848,08/13.0/2022,2000,g 15.5,6.0
# From MPEC 2021-F20
59P/Kearns-Kwee,e,9.3425,312.8098,127.5039,4.484317,0.1037910,0.47579669,148.0069,08/13.0/2022,2000,g  7.0,6.0
# From MPEC 2021-F20
60P/Tsuchinshan,e,3.5817,267.4685,216.9860,3.525491,0.1488931,0.53369588,200.2053,08/13.0/2022,2000,g 11.5,6.0
# From MPEC 2022-PB4
61P/Shajn-Schaldach,e,5.9997,162.9667,221.6770,3.692296,0.1389182,0.42426655,350.0172,08/13.0/2022,2000,g  6.0,10.0
# From MPC109147
62P/Tsuchinshan,e,4.7360,68.7781,47.3406,3.366198,0.1595860,0.62558690,280.3922,08/13.0/2022,2000,g  8.0,10.0
# From MPC 84320
63P/Wild,e,19.7298,358.0191,169.0174,5.610196,0.0741715,0.64932377,254.1212,08/13.0/2022,2000,g 10.5,6.0
# From MPEC 2021-F20
64P/Swift-Gehrels,e,8.9489,299.9432,97.1155,4.452769,0.1048960,0.68850865,144.4350,08/13.0/2022,2000,g 13.4,4.0
# From MPEC 2022-K19
65P/Gunn,e,9.1763,61.9951,213.9028,3.888088,0.1285582,0.24871017,226.4315,08/13.0/2022,2000,g  5.0,6.0
# From MPEC 2021-F20
66P/duToit,e,18.6398,21.7847,257.4698,6.069700,0.0659103,0.78613439,102.0018,08/13.0/2022,2000,g 15.0,4.0
# From MPEC 2022-PB4
67P/Churyumov-Gerasimenko,e,3.8718,36.3300,22.1445,3.456685,0.1533608,0.64978540,43.5413,08/13.0/2022,2000,g 11.0,4.0
# From MPEC 2022-H04
68P/Klemola,e,11.1116,175.0450,153.2230,4.957687,0.0892864,0.63742173,89.9894,08/13.0/2022,2000,g 12.7,4.0
# From MPC114607
69P/Taylor,e,22.0411,104.8111,343.3947,3.885229,0.1287002,0.41360152,160.0676,08/13.0/2022,2000,g  9.5,12.0
# From MPEC 2022-P82
70P/Kojima,e,6.5977,119.2637,1.8119,3.677950,0.1397318,0.45384448,39.5331,08/13.0/2022,2000,g 11.0,6.0
# From MPEC 2022-M88
71P/Clark,e,9.4378,59.3945,209.0675,3.138934,0.1772274,0.49384815,331.1477,08/13.0/2022,2000,g  9.8,6.0
# From MPC 89011
72P/Denning-Fujikawa,e,10.9483,26.7003,346.7196,4.308404,0.1102121,0.81865357,326.1775,08/13.0/2022,2000,g 17.5,10.0
# From MPEC 2022-P82
73P/Schwassmann-Wachmann,e,11.2278,69.6101,199.4891,3.092013,0.1812768,0.68533024,357.6814,08/13.0/2022,2000,g 11.5,6.0
# From MPC106348
73P-T/Schwassmann-Wachmann,e,11.2298,69.6129,199.4691,3.093489,0.1811470,0.68552826,357.4269,08/13.0/2022,2000,g 11.5,6.0
# From MPEC 2022-P18
73P-BU/Schwassmann-Wachmann,e,11.0695,70.6770,199.8748,2.875930,0.2020862,0.66606141,357.5995,08/13.0/2022,2000,g 19.0,4.0
# From MPEC 2022-P18
73P-BV/Schwassmann-Wachmann,e,11.2463,69.4536,199.3239,3.167955,0.1747977,0.69230125,357.9103,08/13.0/2022,2000,g 19.0,4.0
# From MPEC 2022-L66
74P/Smirnova-Chernykh,e,6.1498,57.4571,134.7212,4.539581,0.1019015,0.10543174,156.4849,08/13.0/2022,2000,g  5.0,6.0
# From MPEC 2022-K19
76P/West-Kohoutek-Ikemura,e,30.4746,84.1054,359.9369,3.471068,0.1524086,0.53851962,155.7325,08/13.0/2022,2000,g  8.0,12.0
# From MPEC 2022-M21
77P/Longmore,e,24.3187,14.7686,196.7594,3.623654,0.1428841,0.35187747,326.6787,08/13.0/2022,2000,g  7.0,8.0
# From MPEC 2021-O56
78P/Gehrels,e,6.2558,210.5158,192.6353,3.737472,0.1364072,0.46270340,167.4173,08/13.0/2022,2000,g  5.5,8.0
# From MPC 94675
79P/du Toit-Hartley,e,3.1482,280.5251,281.7802,2.943417,0.1951760,0.61900634,279.3086,08/13.0/2022,2000,g 16.0,4.0
# From MPEC 2014-P41
80P/Peters-Hartley,e,29.9223,259.7985,339.2472,4.024309,0.1220864,0.59861363,345.6102,08/13.0/2022,2000,g  9.0,4.0
# From MPEC 2022-P82
81P/Wild,e,3.2366,136.0989,41.6379,3.453727,0.1535578,0.53719405,340.8612,08/13.0/2022,2000,g  7.0,6.0
# From MPC133426
82P/Gehrels,e,1.1291,239.3184,226.4225,4.133753,0.1172701,0.12189184,177.2932,08/13.0/2022,2000,g 15.0,4.0
# From MPEC 2020-FB5
84P/Giclas,e,7.5504,108.1531,281.6070,3.549702,0.1473725,0.51601162,117.8761,08/13.0/2022,2000,g  9.5,8.0
# From MPEC 2022-OB6
86P/Wild,e,15.4748,72.3537,179.4366,3.601738,0.1441902,0.37229237,26.8651,08/13.0/2022,2000,g 11.0,6.0
# From MPEC 2020-SI8
87P/Bus,e,2.8879,180.7164,27.4988,3.462183,0.1529956,0.40380189,123.4146,08/13.0/2022,2000,g  7.2,10.0
# From MPEC 2022-ED3
88P/Howell,e,4.3825,56.6745,235.9309,3.105811,0.1800701,0.56388032,123.4560,08/13.0/2022,2000,g 11.0,6.0
# From MPC100283
89P/Russell,e,12.0709,41.3513,250.3955,3.753676,0.1355248,0.40826004,279.8404,08/13.0/2022,2000,g 11.5,6.0
# From MPEC 2022-K19
90P/Gehrels,e,9.6512,13.2054,29.0517,6.051171,0.0662133,0.51083773,124.4183,08/13.0/2022,2000,g  8.5,6.0
# From MPEC 2021-S45
91P/Russell,e,14.1068,247.1619,355.7018,3.904129,0.1277667,0.33343395,81.7403,08/13.0/2022,2000,g  7.5,6.0
# From MPEC 2014-J58
92P/Sanguin,e,19.5082,181.3616,163.7965,5.343228,0.0797992,0.66105442,216.7368,08/13.0/2022,2000,g 12.0,6.0
# From NK 2707
93P/Lovas,e,12.2034,339.6415,74.8215,4.380609,0.1074985,0.61336121,213.8969,08/13.0/2022,2000,g  9.0,4.0
# From MPEC 2021-Y10
94P/Russell,e,6.1879,70.8579,92.4343,3.508408,0.1499819,0.36523487,317.8330,08/13.0/2022,2000,g  9.0,6.0
# From MPC 75717
95P/Chiron,e,6.9208,209.2995,339.5302,13.71137,0.0194126,0.37626881,188.9233,08/13.0/2022,2000,g  6.5,2.0
# From MPEC 2017-T14
96P/Machholz,e,57.5059,93.9568,14.7488,3.030049,0.1868657,0.96157782,328.0295,08/13.0/2022,2000,g  9.0,4.0
# From MPEC 2022-C56
97P/Metcalf-Brewington,e,17.9520,184.0769,229.9830,4.760211,0.0948997,0.46004338,16.9309,08/13.0/2022,2000,g  5.5,6.0
# From MPEC 2021-W31
98P/Takamizawa,e,10.5606,114.6853,157.8218,3.794649,0.1333358,0.56221615,78.0432,08/13.0/2022,2000,g  9.0,8.0
# From MPEC 2022-P82
99P/Kowal,e,4.3398,28.1015,174.9001,6.103936,0.0653565,0.22901372,8.0174,08/13.0/2022,2000,g  4.5,6.0
# From MPEC 2022-OB6
100P/Hartley,e,25.5663,37.6871,181.9728,3.432063,0.1550141,0.41212284,0.3170,08/13.0/2022,2000,g  9.0,8.0
# From MPEC 2022-K19
101P/Chernykh,e,5.0515,116.2148,277.7407,5.807254,0.0704284,0.59632211,66.4163,08/13.0/2022,2000,g 10.0,4.8
# From MPEC 2022-C56
102P/Shoemaker,e,25.8839,339.3667,20.6164,3.815400,0.1322495,0.45717423,75.0392,08/13.0/2022,2000,g  6.5,8.0
# From MPEC 2018-HA5
103P/Hartley,e,13.6093,219.7471,181.2901,3.475264,0.1521326,0.69366757,295.2597,08/13.0/2022,2000,g  8.5,8.0
# From MPEC 2022-P82
104P/Kowal,e,5.7020,207.2072,227.2528,3.208124,0.1715249,0.66553816,36.5982,08/13.0/2022,2000,g 16.0,4.0
# From MPC109147
105P/Singer Brewster,e,9.1685,192.3974,46.4592,3.468872,0.1525533,0.40893954,223.5986,08/13.0/2022,2000,g 11.5,6.0
# From MPEC 2022-GA9
106P/Schuster,e,19.5364,48.8757,353.6991,3.764457,0.1349431,0.59388919,48.4686,08/13.0/2022,2000,g 14.0,4.8
# From MPEC 2015-M77
107P/Wilson-Harrington,e,2.7992,266.7771,95.4417,2.624969,0.2317489,0.63175244,357.2970,08/13.0/2022,2000,g  9.0,4.0
# From MPEC 2022-P82
108P/Ciffreo,e,11.4362,50.2826,354.4526,3.739839,0.1362777,0.55602066,45.9050,08/13.0/2022,2000,g  8.0,12.0
# From  105, 420
109P/Swift-Tuttle,e,113.8682,139.1315,153.0083,26.18216,0.0073569,0.96262183,79.7316,08/13.0/2022,2000,g  4.0,6.0
# From MPEC 2022-P82
110P/Hartley,e,11.7050,287.5296,167.4517,3.603489,0.1440852,0.31854919,43.0340,08/13.0/2022,2000,g  1.0,12.0
# From MPC 75718
111P/Helin-Roman-Crockett,e,4.2260,89.7584,1.0200,4.149926,0.1165852,0.10662071,49.3332,08/13.0/2022,2000,g  5.0,8.0
# From MPEC 2021-S45
112P/Urata-Niijima,e,24.2093,31.8325,21.4673,3.524779,0.1489382,0.59034970,136.5231,08/13.0/2022,2000,g 14.0,6.0
# From MPEC 2022-D36
